NORAD_CAT_ID,OBJECT_NAME,OBJECT_TYPE,EPOCH,MEAN_MOTION,ECCENTRICITY,INCLINATION,RA_OF_ASC_NODE,ARG_OF_PERICENTER,MEAN_ANOMALY,BSTAR,MEAN_MOTION_DOT,MEAN_MOTION_DDOT,TLE_LINE0,TLE_LINE1,TLE_LINE2,SEMIMAJOR_AXIS,PERIOD,APOGEE,PERIGEE,DECAYED
56488.0,STARLINK-6204,PAYLOAD,2024-03-06 23:15:30,14.98340624,0.0003051,70.001,152.0824,261.5747,98.5066,-0.00010092,-1.297e-05,0.0,0 STARLINK-6204,1 56488U 23064AS  24066.96910369 -.00001297  00000-0 -10092-3 0  9993,2 56488  70.0010 152.0824 0003051 261.5747  98.5066 14.98340624 46830,6950.16,96.106,574.146,569.905,0.0
56488.0,STARLINK-6204,PAYLOAD,2024-03-07 13:40:42,14.98331999,0.0003027,70.0004,150.5682,266.2378,93.8435,0.00034361,4.009e-05,0.0,0 STARLINK-6204,1 56488U 23064AS  24067.56993899  .00004009  00000-0  34361-3 0  9996,2 56488  70.0004 150.5682 0003027 266.2378  93.8435 14.98331999 46566,6950.187,96.107,574.156,569.948,0.0
56488.0,STARLINK-6204,PAYLOAD,2024-03-08 12:06:36,14.98331513,0.0002813,70.0009,148.2137,265.525,94.5588,6.6965e-05,7.06e-06,0.0,0 STARLINK-6204,1 56488U 23064AS  24068.50458586  .00000706  00000-0  66965-4 0  9996,2 56488  70.0009 148.2137 0002813 265.5250  94.5588 14.98331513 47068,6950.188,96.107,574.008,570.098,0.0
56488.0,STARLINK-6204,PAYLOAD,2024-03-08 15:18:52,14.98333393,0.000284,70.0004,147.8751,268.6491,91.4343,3.3836e-05,3.11e-06,0.0,0 STARLINK-6204,1 56488U 23064AS  24068.63810513  .00000311  00000-0  33836-4 0  9995,2 56488  70.0004 147.8751 0002840 268.6491  91.4343 14.98333393 46726,6950.182,96.107,574.021,570.074,0.0
56488.0,STARLINK-6204,PAYLOAD,2024-03-09 12:08:36,14.98359995,0.0002251,70.0004,145.6866,258.4356,101.655,-0.00047253,-5.731e-05,0.0,0 STARLINK-6204,1 56488U 23064AS  24069.50597954 -.00005731  00000-0 -47253-3 0  9993,2 56488  70.0004 145.6866 0002251 258.4356 101.6550 14.98359995 47217,6950.1,96.105,573.53,570.401,0.0
56488.0,STARLINK-6204,PAYLOAD,2024-03-09 21:45:25,14.98338404,0.0002894,70.0003,144.6774,273.6478,86.435,-0.00014367,-1.807e-05,0.0,0 STARLINK-6204,1 56488U 23064AS  24069.90654231 -.00001807  00000-0 -14367-3 0  9999,2 56488  70.0003 144.6774 0002894 273.6478  86.4350 14.98338404 46916,6950.167,96.106,574.043,570.021,0.0
56488.0,STARLINK-6204,PAYLOAD,2024-03-10 05:46:05,14.98377687,0.0002291,70.0002,143.8361,255.4026,104.6879,-0.00078643,-9.475e-05,0.0,0 STARLINK-6204,1 56488U 23064AS  24070.24034045 -.00009475  00000-0 -78643-3 0  9999,2 56488  70.0002 143.8361 0002291 255.4026 104.6879 14.98377687 47327,6950.045,96.104,573.503,570.318,0.0
56488.0,STARLINK-6204,PAYLOAD,2024-03-10 12:10:37,14.98347106,0.0002191,70.0002,143.1628,256.5899,103.5016,-0.00030205,-3.696e-05,0.0,0 STARLINK-6204,1 56488U 23064AS  24070.50738042 -.00003696  00000-0 -30205-3 0  9997,2 56488  70.0002 143.1628 0002191 256.5899 103.5016 14.98347106 47363,6950.14,96.106,573.528,570.482,0.0
56488.0,STARLINK-6204,PAYLOAD,2024-03-11 12:12:38,14.98335362,0.0002928,70.0003,140.6388,269.1919,90.8904,-8.8446e-05,-1.148e-05,0.0,0 STARLINK-6204,1 56488U 23064AS  24071.50878152 -.00001148  00000-0 -88446-4 0  9996,2 56488  70.0003 140.6388 0002928 269.1919  90.8904 14.98335362 47512,6950.176,96.107,574.076,570.006,0.0
56488.0,STARLINK-6204,PAYLOAD,2024-03-12 12:14:39,14.98326944,0.0002584,70.0008,138.1135,259.5336,100.5532,-1.8873e-05,-3.18e-06,0.0,0 STARLINK-6204,1 56488U 23064AS  24072.51018484 -.00000318  00000-0 -18873-4 0  9997,2 56488  70.0008 138.1135 0002584 259.5336 100.5532 14.98326944 47661,6950.202,96.107,573.863,570.271,0.0
56488.0,STARLINK-6204,PAYLOAD,2024-03-12 21:51:28,14.98328817,0.0002789,70.0006,137.1034,266.293,93.791,-1.2699e-05,-2.44e-06,0.0,0 STARLINK-6204,1 56488U 23064AS  24072.91074379 -.00000244  00000-0 -12699-4 0  9994,2 56488  70.0006 137.1034 0002789 266.2930  93.7910 14.98328817 47369,6950.197,96.107,574.0,570.123,0.0
56488.0,STARLINK-6204,PAYLOAD,2024-03-13 12:16:40,14.98332749,0.0003095,70.0,135.5884,269.7344,90.3461,3.388e-05,3.11e-06,0.0,0 STARLINK-6204,1 56488U 23064AS  24073.51157892  .00000311  00000-0  33880-4 0  9991,2 56488  70.0000 135.5884 0003095 269.7344  90.3461 14.98332749 47819,6950.184,96.107,574.2,569.898,0.0
56488.0,STARLINK-6204,PAYLOAD,2024-03-13 13:52:48,14.98333592,0.0003068,70.0001,135.42,269.6053,90.4755,4.4306e-05,4.36e-06,0.0,0 STARLINK-6204,1 56488U 23064AS  24073.57833796  .00000436  00000-0  44306-4 0  9994,2 56488  70.0001 135.4200 0003068 269.6053  90.4755 14.98333592 47462,6950.182,96.107,574.179,569.914,0.0
56488.0,STARLINK-6204,PAYLOAD,2024-03-14 05:54:09,14.9833191,0.0003082,70.0001,133.7367,271.3489,88.7317,3.4167e-05,3.15e-06,0.0,0 STARLINK-6204,1 56488U 23064AS  24074.24593803  .00000315  00000-0  34167-4 0  9991,2 56488  70.0001 133.7367 0003082 271.3489  88.7317 14.98331910 47563,6950.187,96.107,574.194,569.91,0.0
56488.0,STARLINK-6204,PAYLOAD,2024-03-14 12:18:40,14.98335016,0.0003058,70.0,133.0634,271.3301,88.7507,6.6963e-05,7.06e-06,0.0,0 STARLINK-6204,1 56488U 23064AS  24074.51297451  .00000706  00000-0  66963-4 0  9994,2 56488  70.0000 133.0634 0003058 271.3301  88.7507 14.98335016 47964,6950.177,96.107,574.168,569.917,0.0
56488.0,STARLINK-6204,PAYLOAD,2024-03-15 04:20:02,14.98329519,0.0003029,69.9999,131.3805,271.7448,88.3364,-5.3421e-05,-7.3e-06,0.0,0 STARLINK-6204,1 56488U 23064AS  24075.18058055 -.00000730  00000-0 -53421-4 0  9997,2 56488  69.9999 131.3805 0003029 271.7448  88.3364 14.98329519 48063,6950.194,96.107,574.165,569.954,0.0
56488.0,STARLINK-6204,PAYLOAD,2024-03-15 12:20:42,14.98329622,0.0002972,70.0001,130.5395,270.7003,89.3816,-4.8891e-05,-6.76e-06,0.0,0 STARLINK-6204,1 56488U 23064AS  24075.51438024 -.00000676  00000-0 -48891-4 0  9996,2 56488  70.0001 130.5395 0002972 270.7003  89.3816 14.98329622 47750,6950.194,96.107,574.125,569.993,0.0
56488.0,STARLINK-6204,PAYLOAD,2024-03-16 04:22:02,14.98331572,0.0002885,70.0,128.8565,270.7154,89.3674,-4.2684e-05,-6.02e-06,0.0,0 STARLINK-6204,1 56488U 23064AS  24076.18197874 -.00000602  00000-0 -42684-4 0  9998,2 56488  70.0000 128.8565 0002885 270.7154  89.3674 14.98331572 48219,6950.188,96.107,574.058,570.048,0.0
56488.0,STARLINK-6204,PAYLOAD,2024-03-16 13:58:51,14.98330948,0.0002957,69.9998,127.846,272.3388,87.7432,-4.2473e-05,-6e-06,0.0,0 STARLINK-6204,1 56488U 23064AS  24076.58253889 -.00000600  00000-0 -42473-4 0  9995,2 56488  69.9998 127.8460 0002957 272.3388  87.7432 14.98330948 47918,6950.19,96.107,574.11,570.0,0.0
56488.0,STARLINK-6204,PAYLOAD,2024-03-17 04:24:03,14.98327916,0.000302,69.9995,126.3312,269.462,90.6193,1.9589e-05,1.41e-06,0.0,0 STARLINK-6204,1 56488U 23064AS  24077.18337884  .00000141  00000-0  19589-4 0  9990,2 56488  69.9995 126.3312 0003020 269.4620  90.6193 14.98327916 48361,6950.199,96.107,574.163,569.965,0.0
56488.0,STARLINK-6204,PAYLOAD,2024-03-17 12:24:44,14.9832857,0.0002998,69.9995,125.4896,268.4227,91.6589,2.5815e-05,2.15e-06,0.0,0 STARLINK-6204,1 56488U 23064AS  24077.51717846  .00000215  00000-0  25815-4 0  9998,2 56488  69.9995 125.4896 0002998 268.4227  91.6589 14.98328570 48056,6950.197,96.107,574.146,569.979,0.0
56488.0,STARLINK-6204,PAYLOAD,2024-03-18 04:26:04,14.98329224,0.0002981,69.9994,123.8061,267.6885,92.3933,1.2625e-05,5.8e-07,0.0,0 STARLINK-6204,1 56488U 23064AS  24078.18477854  .00000058  00000-0  12625-4 0  9994,2 56488  69.9994 123.8061 0002981 267.6885  92.3933 14.98329224 48513,6950.195,96.107,574.132,569.988,0.0
56488.0,STARLINK-6204,PAYLOAD,2024-03-18 12:26:45,14.98329934,0.0002999,69.9994,122.9646,267.573,92.5086,1.6352e-05,1.02e-06,0.0,0 STARLINK-6204,1 56488U 23064AS  24078.51857800  .00000102  00000-0  16352-4 0  9995,2 56488  69.9994 122.9646 0002999 267.5730  92.5086 14.98329934 48204,6950.193,96.107,574.142,569.974,0.0
56488.0,STARLINK-6204,PAYLOAD,2024-03-19 10:52:37,14.9833108,0.000288,69.9997,120.6086,262.0587,98.0246,2.3155e-05,1.83e-06,0.0,0 STARLINK-6204,1 56488U 23064AS  24079.45321651  .00000183  00000-0  23155-4 0  9997,2 56488  69.9997 120.6086 0002880 262.0587  98.0246 14.98331080 48348,6950.19,96.107,574.056,570.053,0.0
56488.0,STARLINK-6204,PAYLOAD,2024-03-19 20:29:26,14.9833373,0.0002886,69.9996,119.5988,262.4003,97.6829,3.6018e-05,3.37e-06,0.0,0 STARLINK-6204,1 56488U 23064AS  24079.85377367  .00000337  00000-0  36018-4 0  9999,2 56488  69.9996 119.5988 0002886 262.4003  97.6829 14.98333730 48760,6950.181,96.107,574.052,570.041,0.0
56488.0,STARLINK-6204,PAYLOAD,2024-03-20 12:30:46,14.98332976,0.0002943,69.9993,117.9155,265.2156,94.8667,2.6798e-05,2.27e-06,0.0,0 STARLINK-6204,1 56488U 23064AS  24080.52137371  .00000227  00000-0  26798-4 0  9996,2 56488  69.9993 117.9155 0002943 265.2156  94.8667 14.98332976 48501,6950.184,96.107,574.094,570.003,0.0
56488.0,STARLINK-6204,PAYLOAD,2024-03-21 04:32:07,14.98327066,0.0002895,69.9994,116.2327,263.8746,96.2084,-6.4829e-05,-8.66e-06,0.0,0 STARLINK-6204,1 56488U 23064AS  24081.18898021 -.00000866  00000-0 -64829-4 0  9993,2 56488  69.9994 116.2327 0002895 263.8746  96.2084 14.98327066 48963,6950.202,96.107,574.079,570.055,0.0
56488.0,STARLINK-6204,PAYLOAD,2024-03-21 12:32:48,14.98329126,0.0002886,69.9994,115.3911,263.8715,96.2115,-3.5543e-05,-5.17e-06,0.0,0 STARLINK-6204,1 56488U 23064AS  24081.52277850 -.00000517  00000-0 -35543-4 0  9996,2 56488  69.9994 115.3911 0002886 263.8715  96.2115 14.98329126 48658,6950.196,96.107,574.066,570.055,0.0
56488.0,STARLINK-6204,PAYLOAD,2024-03-22 04:34:08,14.98329345,0.0002754,69.9998,113.7084,260.1535,99.9313,2.9602e-05,2.6e-06,0.0,0 STARLINK-6204,1 56488U 23064AS  24082.19037653  .00000260  00000-0  29602-4 0  9997,2 56488  69.9998 113.7084 0002754 260.1535  99.9313 14.98329345 49114,6950.195,96.107,573.974,570.146,0.0
56488.0,STARLINK-6204,PAYLOAD,2024-03-22 12:34:48,14.98332695,0.0002723,69.9998,112.8661,264.593,95.4918,2.0599e-05,1.53e-06,0.0,0 STARLINK-6204,1 56488U 23064AS  24082.52417463  .00000153  00000-0  20599-4 0  9992,2 56488  69.9998 112.8661 0002723 264.5930  95.4918 14.98332695 48807,6950.185,96.107,573.942,570.157,0.0
